{"type": "FeatureCollection", "features": [ {"type": "Feature", "properties": {"norad_id": 65942, "name": "BOTAN", "group": "stations", "lat": 40.48247818673015, "lon": -42.92640808690074, "alt_km": 378.24073537205095, "timestamp": "2025-12-04T17:48:38.982607+00:00", "meta": {"OBJECT_NAME": "BOTAN", "OBJECT_ID": "1998-067XP", "EPOCH": "2025-12-04T06:31:29.212032", "MEAN_MOTION": 15.60670487, "ECCENTRICITY": 0.00041989, "INCLINATION": 51.6276, "RA_OF_ASC_NODE": 182.0008, "ARG_OF_PERICENTER": 178.1888, "MEAN_ANOMALY": 181.9121, "EPHEMERIS_TYPE": 0, "CLASSIFICATION_TYPE": "U", "NORAD_CAT_ID": 65942, "ELEMENT_SET_NO": 999, "REV_AT_EPOCH": 854, "BSTAR": 0.0018696572, "MEAN_MOTION_DOT": 0.00160832, "MEAN_MOTION_DDOT": 0}, "tle": {"line1": "1 65942U 98067XP  25338.27186588  .00160832  00000+0  18697-2 0  9994", "line2": "2 65942  51.6276 182.0008 0004198 178.1888 181.9121 15.60670487  8541"}}, "geometry": {"type": "Point", "coordinates": [-42.92640808690074, 40.48247818673015]}}, {"type": "Feature", "properties": {"norad_id": 65943, "name": "E-KAGAKU-1", "group": "stations", "lat": -44.885141382015384, "lon": 52.236096213094555, "alt_km": 397.85891669760895, "timestamp": "2025-12-04T17:48:38.982617+00:00", "meta": {"OBJECT_NAME": "E-KAGAKU-1", "OBJECT_ID": "1998-067XQ", "EPOCH": "2025-12-02T21:39:34.941600", "MEAN_MOTION": 15.57714998, "ECCENTRICITY": 0.00035202, "INCLINATION": 51.6296, "RA_OF_ASC_NODE": 189.358, "ARG_OF_PERICENTER": 147.4331, "MEAN_ANOMALY": 212.6879, "EPHEMERIS_TYPE": 0, "CLASSIFICATION_TYPE": "U", "NORAD_CAT_ID": 65943, "ELEMENT_SET_NO": 999, "REV_AT_EPOCH": 832, "BSTAR": 0.00096701912, "MEAN_MOTION_DOT": 0.00073283, "MEAN_MOTION_DDOT": 0}, "tle": {"line1": "1 65943U 98067XQ  25336.90248775  .00073283  00000+0  96702-3 0  9997", "line2": "2 65943  51.6296 189.3580 0003520 147.4331 212.6879 15.57714998  8329"}}, "geometry": {"type": "Point", "coordinates": [52.236096213094555, -44.885141382015384]}}, {"type": "Feature", "properties": {"norad_id": 66052, "name": "HRC MONOBLOCK CAMERA", "group": "stations", "lat": 9.217669661497709, "lon": -171.2524559421166, "alt_km": 408.6024440092542, "timestamp": "2025-12-04T17:48:38.982626+00:00", "meta": {"OBJECT_NAME": "HRC MONOBLOCK CAMERA", "OBJECT_ID": "1998-067XR", "EPOCH": "2025-12-04T06:57:07.350624", "MEAN_MOTION": 15.53318158, "ECCENTRICITY": 0.00043168, "INCLINATION": 51.6291, "RA_OF_ASC_NODE": 183.6143, "ARG_OF_PERICENTER": 150.6108, "MEAN_ANOMALY": 209.5126, "EPHEMERIS_TYPE": 0, "CLASSIFICATION_TYPE": "U", "NORAD_CAT_ID": 66052, "ELEMENT_SET_NO": 999, "REV_AT_EPOCH": 752, "BSTAR": 0.00094005193, "MEAN_MOTION_DOT": 0.00060423, "MEAN_MOTION_DDOT": 0}, "tle": {"line1": "1 66052U 98067XR  25338.28966841  .00060423  00000+0  94005-3 0  9999", "line2": "2 66052  51.6291 183.6143 0004316 150.6108 209.5126 15.53318158  7525"}}, "geometry": {"type": "Point", "coordinates": [-171.2524559421166, 9.217669661497709]}}, {"type": "Feature", "properties": {"norad_id": 66174, "name": "HTV-X1", "group": "stations", "lat": 22.400588232360704, "lon": -158.8660857032066, "alt_km": 418.60356024410703, "timestamp": "2025-12-04T17:48:38.982639+00:00", "meta": {"OBJECT_NAME": "HTV-X1", "OBJECT_ID": "2025-241A", "EPOCH": "2025-12-04T02:12:18.455328", "MEAN_MOTION": 15.49293095, "ECCENTRICITY": 0.00036281, "INCLINATION": 51.6302, "RA_OF_ASC_NODE": 185.2932, "ARG_OF_PERICENTER": 200.9086, "MEAN_ANOMALY": 159.1754, "EPHEMERIS_TYPE": 0, "CLASSIFICATION_TYPE": "U", "NORAD_CAT_ID": 66174, "ELEMENT_SET_NO": 999, "REV_AT_EPOCH": 51, "BSTAR": 0.00029177423, "MEAN_MOTION_DOT": 0.00015824, "MEAN_MOTION_DDOT": 0}, "tle": {"line1": "1 66174U 25241A   25338.09188027  .00015824  00000+0  29177-3 0  9992", "line2": "2 66174  51.6302 185.2932 0003628 200.9086 159.1754 15.49293095   512"}}, "geometry": {"type": "Point", "coordinates": [-158.8660857032066, 22.400588232360704]}}, {"type": "Feature", "properties": {"norad_id": 66515, "name": "SZ-21 MODULE", "group": "stations", "lat": 8.287193919419488, "lon": 74.29893288640486, "alt_km": 384.26696595380326, "timestamp": "2025-12-04T17:48:38.982648+00:00", "meta": {"OBJECT_NAME": "SZ-21 MODULE", "OBJECT_ID": "2025-246C", "EPOCH": "2025-12-03T07:59:41.917920", "MEAN_MOTION": 15.61790567, "ECCENTRICITY": 0.0005832, "INCLINATION": 41.4771, "RA_OF_ASC_NODE": 73.3983, "ARG_OF_PERICENTER": 205.8085, "MEAN_ANOMALY": 154.2464, "EPHEMERIS_TYPE": 0, "CLASSIFICATION_TYPE": "U", "NORAD_CAT_ID": 66515, "ELEMENT_SET_NO": 999, "REV_AT_EPOCH": 297, "BSTAR": 0.00036812, "MEAN_MOTION_DOT": 0.0003262, "MEAN_MOTION_DDOT": 0}, "tle": {"line1": "1 66515U 25246C   25337.33312405  .00032620  00000+0  36812-3 0  9998", "line2": "2 66515  41.4771  73.3983 0005832 205.8085 154.2464 15.61790567  2979"}}, "geometry": {"type": "Point", "coordinates": [74.29893288640486, 8.287193919419488]}}, {"type": "Feature", "properties": {"norad_id": 66645, "name": "SHENZHOU-22", "group": "stations", "lat": -12.364351359568076, "lon": -100.38565845026208, "alt_km": 396.89936269778536, "timestamp": "2025-12-04T17:48:38.982659+00:00", "meta": {"OBJECT_NAME": "SHENZHOU-22", "OBJECT_ID": "2025-272A", "EPOCH": "2025-12-04T07:44:04.873632", "MEAN_MOTION": 15.58643052, "ECCENTRICITY": 0.00099613, "INCLINATION": 41.4682, "RA_OF_ASC_NODE": 67.7893, "ARG_OF_PERICENTER": 326.0847, "MEAN_ANOMALY": 33.9353, "EPHEMERIS_TYPE": 0, "CLASSIFICATION_TYPE": "U", "NORAD_CAT_ID": 66645, "ELEMENT_SET_NO": 999, "REV_AT_EPOCH": 26274, "BSTAR": 0.00047338698, "MEAN_MOTION_DOT": 0.00037313, "MEAN_MOTION_DDOT": 0}, "tle": {"line1": "1 66645U 25272A   25338.32227863  .00037313  00000+0  47339-3 0  9994", "line2": "2 66645  41.4682  67.7893 0009961 326.0847  33.9353 15.58643052262745"}}, "geometry": {"type": "Point", "coordinates": [-100.38565845026208, -12.364351359568076]}}, {"type": "Feature", "properties": {"norad_id": 66646, "name": "CZ-2F R/B", "group": "stations", "lat": -1.0940254000656153, "lon": 59.82308944310749, "alt_km": 309.82710051350205, "timestamp": "2025-12-04T17:48:38.982669+00:00", "meta": {"OBJECT_NAME": "CZ-2F R/B", "OBJECT_ID": "2025-272B", "EPOCH": "2025-11-26T11:17:54.506400", "MEAN_MOTION": 16.01945612, "ECCENTRICITY": 0.01210796, "INCLINATION": 41.4431, "RA_OF_ASC_NODE": 114.9009, "ARG_OF_PERICENTER": 133.7676, "MEAN_ANOMALY": 227.3272, "EPHEMERIS_TYPE": 0, "CLASSIFICATION_TYPE": "U", "NORAD_CAT_ID": 66646, "ELEMENT_SET_NO": 999, "REV_AT_EPOCH": 21, "BSTAR": 0.00029319366, "MEAN_MOTION_DOT": 0.00449059, "MEAN_MOTION_DDOT": 7.567612e-06}, "tle": {"line1": "1 66646U 25272B   25330.47076975  .00449059  75676-5  29319-3 0  9998", "line2": "2 66646  41.4431 114.9009 0121079 133.7676 227.3272 16.01945612   217"}}, "geometry": {"type": "Point", "coordinates": [59.82308944310749, -1.0940254000656153]}}, {"type": "Feature", "properties": {"norad_id": 66664, "name": "SOYUZ-MS 28", "group": "stations", "lat": 22.40059014696565, "lon": -158.86608382789743, "alt_km": 418.6035599256338, "timestamp": "2025-12-04T17:48:38.982679+00:00", "meta": {"OBJECT_NAME": "SOYUZ-MS 28", "OBJECT_ID": "2025-275A", "EPOCH": "2025-12-04T02:12:18.455328", "MEAN_MOTION": 15.49293095, "ECCENTRICITY": 0.00036281, "INCLINATION": 51.6302, "RA_OF_ASC_NODE": 185.2932, "ARG_OF_PERICENTER": 200.9086, "MEAN_ANOMALY": 159.1754, "EPHEMERIS_TYPE": 0, "CLASSIFICATION_TYPE": "U", "NORAD_CAT_ID": 66664, "ELEMENT_SET_NO": 999, "REV_AT_EPOCH": 110, "BSTAR": 0.00029177423, "MEAN_MOTION_DOT": 0.00015824, "MEAN_MOTION_DDOT": 0}, "tle": {"line1": "1 66664U 25275A   25338.09188027  .00015824  00000+0  29177-3 0  9993", "line2": "2 66664  51.6302 185.2932 0003628 200.9086 159.1754 15.49293095  1102"}}, "geometry": {"type": "Point", "coordinates": [-158.86608382789743, 22.40059014696565]}}]}